$$SOE
2460147.500000000, A.D. 2023-Jul-22 00:00:00.0000, 1.523250957893294E+08, -5.310987849834578E+08, -4.118047562893358E+07,
2460154.500000000, A.D. 2023-Jul-29 00:00:00.0000, 1.607957750424574E+08, -5.282096082946482E+08, -4.205134680904338E+07,
2460161.500000000, A.D. 2023-Aug-05 00:00:00.0000, 1.692204289942307E+08, -5.251694053906028E+08, -4.291019203577843E+07,
2460168.500000000, A.D. 2023-Aug-12 00:00:00.0000, 1.775965637129992E+08, -5.219787901861888E+08, -4.375674457990721E+07,
2460175.500000000, A.D. 2023-Aug-19 00:00:00.0000, 1.859216876345658E+08, -5.186384126250306E+08, -4.459073954148284E+07,
2460182.500000000, A.D. 2023-Aug-26 00:00:00.0000, 1.941933118353404E+08, -5.151489588081130E+08, -4.541191388518825E+07,
2460189.500000000, A.D. 2023-Sep-02 00:00:00.0000, 2.024089502931201E+08, -5.115111512005057E+08, -4.622000648183158E+07,
2460196.500000000, A.D. 2023-Sep-09 00:00:00.0000, 2.105661201724028E+08, -5.077257489576720E+08, -4.701475816279432E+07,
2460203.500000000, A.D. 2023-Sep-16 00:00:00.0000, 2.186623423029854E+08, -5.037935484294052E+08, -4.779591180764884E+07,
2460210.500000000, A.D. 2023-Sep-23 00:00:00.0000, 2.266951422686701E+08, -4.997153835546983E+08, -4.856321247969398E+07,
2460217.500000000, A.D. 2023-Sep-30 00:00:00.0000, 2.346620517667891E+08, -4.954921249570259E+08, -4.931640748089975E+07,
2460224.500000000, A.D. 2023-Oct-07 00:00:00.0000, 2.425606078847195E+08, -4.911246782826221E+08, -5.005524615459457E+07,
2460231.500000000, A.D. 2023-Oct-14 00:00:00.0000, 2.503883513332350E+08, -4.866139850937752E+08, -5.077947980182207E+07,
2460238.500000000, A.D. 2023-Oct-21 00:00:00.0000, 2.581428268659581E+08, -4.819610247134320E+08, -5.148886187634704E+07,
2460245.500000000, A.D. 2023-Oct-28 00:00:00.0000, 2.658215844614213E+08, -4.771668147608089E+08, -5.218314814279789E+07,
2460252.500000000, A.D. 2023-Nov-04 00:00:00.0000, 2.734221800182767E+08, -4.722324111483102E+08, -5.286209674604517E+07,
2460259.500000000, A.D. 2023-Nov-11 00:00:00.0000, 2.809421757416604E+08, -4.671589081393472E+08, -5.352546825689799E+07,
2460266.500000000, A.D. 2023-Nov-18 00:00:00.0000, 2.883791404406279E+08, -4.619474385310012E+08, -5.417302571928588E+07,
2460273.500000000, A.D. 2023-Nov-25 00:00:00.0000, 2.957306498098458E+08, -4.565991739385598E+08, -5.480453470356318E+07,
2460280.500000000, A.D. 2023-Dec-02 00:00:00.0000, 3.029942867240144E+08, -4.511153251925590E+08, -5.541976336927301E+07,
2460287.500000000, A.D. 2023-Dec-09 00:00:00.0000, 3.101676416232297E+08, -4.454971429064917E+08, -5.601848254921779E+07,
2460294.500000000, A.D. 2023-Dec-16 00:00:00.0000, 3.172483132775162E+08, -4.397459182019002E+08, -5.660046588018140E+07,
2460301.500000000, A.D. 2023-Dec-23 00:00:00.0000, 3.242339102799357E+08, -4.338629829031643E+08, -5.716548995620322E+07,
2460308.500000000, A.D. 2023-Dec-30 00:00:00.0000, 3.311220519287754E+08, -4.278497081529451E+08, -5.771333429593971E+07,
2460315.500000000, A.D. 2024-Jan-06 00:00:00.0000, 3.379103667263482E+08, -4.217075038087461E+08, -5.824378115464821E+07,
2460322.500000000, A.D. 2024-Jan-13 00:00:00.0000, 3.445964916671088E+08, -4.154378204262496E+08, -5.875661561964768E+07,
2460329.500000000, A.D. 2024-Jan-20 00:00:00.0000, 3.511780735393786E+08, -4.090421507438551E+08, -5.925162584967744E+07,
2460336.500000000, A.D. 2024-Jan-27 00:00:00.0000, 3.576527702128506E+08, -4.025220300158818E+08, -5.972860321910557E+07,
2460343.500000000, A.D. 2024-Feb-03 00:00:00.0000, 3.640182514841591E+08, -3.958790361427080E+08, -6.018734240551907E+07,
2460350.500000000, A.D. 2024-Feb-10 00:00:00.0000, 3.702721997584510E+08, -3.891147898884772E+08, -6.062764147019491E+07,
2460357.500000000, A.D. 2024-Feb-17 00:00:00.0000, 3.764123107062343E+08, -3.822309551779439E+08, -6.104930194376497E+07,
2460364.500000000, A.D. 2024-Feb-24 00:00:00.0000, 3.824362939319352E+08, -3.752292394571936E+08, -6.145212891936918E+07,
2460371.500000000, A.D. 2024-Mar-02 00:00:00.0000, 3.883418736838048E+08, -3.681113941502081E+08, -6.183593115879196E+07,
2460378.500000000, A.D. 2024-Mar-09 00:00:00.0000, 3.941267897441089E+08, -3.608792152733315E+08, -6.220052122953384E+07,
2460385.500000000, A.D. 2024-Mar-16 00:00:00.0000, 3.997887988951419E+08, -3.535345440094064E+08, -6.254571569298215E+07,
2460392.500000000, A.D. 2024-Mar-23 00:00:00.0000, 4.053256768579716E+08, -3.460792661318746E+08, -6.287133524357472E+07,
2460399.500000000, A.D. 2024-Mar-30 00:00:00.0000, 4.107352184628448E+08, -3.385153103052567E+08, -6.317720459555715E+07,
2460406.500000000, A.D. 2024-Apr-06 00:00:00.0000, 4.160152363064571E+08, -3.308446486282929E+08, -6.346315241584352E+07,
2460413.500000000, A.D. 2024-Apr-13 00:00:00.0000, 4.211635614468894E+08, -3.230692985808601E+08, -6.372901156014000E+07,
2460420.500000000, A.D. 2024-Apr-20 00:00:00.0000, 4.261780451851715E+08, -3.151913236961837E+08, -6.397461930626060E+07,
2460427.500000000, A.D. 2024-Apr-27 00:00:00.0000, 4.310565604179493E+08, -3.072128335189432E+08, -6.419981749150088E+07,
2460434.500000000, A.D. 2024-May-04 00:00:00.0000, 4.357970026502861E+08, -2.991359835522127E+08, -6.440445261972895E+07,
2460441.500000000, A.D. 2024-May-11 00:00:00.0000, 4.403972909075913E+08, -2.909629752945006E+08, -6.458837596838947E+07,
2460448.500000000, A.D. 2024-May-18 00:00:00.0000, 4.448553686289312E+08, -2.826960563444705E+08, -6.475144370107290E+07,
2460455.500000000, A.D. 2024-May-25 00:00:00.0000, 4.491692045664127E+08, -2.743375205793763E+08, -6.489351698829220E+07,
2460462.500000000, A.D. 2024-Jun-01 00:00:00.0000, 4.533367937501664E+08, -2.658897084632323E+08, -6.501446214634952E+07,
2460469.500000000, A.D. 2024-Jun-08 00:00:00.0000, 4.573561587647942E+08, -2.573550075057997E+08, -6.511415081837812E+07,
2460476.500000000, A.D. 2024-Jun-15 00:00:00.0000, 4.612253517367519E+08, -2.487358523250894E+08, -6.519246018926665E+07,
2460483.500000000, A.D. 2024-Jun-22 00:00:00.0000, 4.649424560283136E+08, -2.400347231365893E+08, -6.524927304597431E+07,
2460490.500000000, A.D. 2024-Jun-29 00:00:00.0000, 4.685055855171194E+08, -2.312541444893283E+08, -6.528447763725494E+07,
2460497.500000000, A.D. 2024-Jul-06 00:00:00.0000, 4.719128841054631E+08, -2.223966867186232E+08, -6.529796777701132E+07,
2460504.500000000, A.D. 2024-Jul-13 00:00:00.0000, 4.751625274078486E+08, -2.134649672892225E+08, -6.528964313893354E+07,
2460511.500000000, A.D. 2024-Jul-20 00:00:00.0000, 4.782527246313337E+08, -2.044616508783699E+08, -6.525940946626239E+07,
2460518.500000000, A.D. 2024-Jul-27 00:00:00.0000, 4.811817199928613E+08, -1.953894491568714E+08, -6.520717871488471E+07,
2460525.500000000, A.D. 2024-Aug-03 00:00:00.0000, 4.839477939464381E+08, -1.862511206416968E+08, -6.513286918545170E+07,
2460532.500000000, A.D. 2024-Aug-10 00:00:00.0000, 4.865492643857092E+08, -1.770494706230018E+08, -6.503640566015496E+07,
2460539.500000000, A.D. 2024-Aug-17 00:00:00.0000, 4.889844878689293E+08, -1.677873511421869E+08, -6.491771954682148E+07,
2460546.500000000, A.D. 2024-Aug-24 00:00:00.0000, 4.912518608936511E+08, -1.584676610415738E+08, -6.477674903480814E+07,
2460553.500000000, A.D. 2024-Aug-31 00:00:00.0000, 4.933498213357992E+08, -1.490933461454644E+08, -6.461343927838199E+07,
2460560.500000000, A.D. 2024-Sep-07 00:00:00.0000, 4.952768504171345E+08, -1.396673994440611E+08, -6.442774263073204E+07,
2460567.500000000, A.D. 2024-Sep-14 00:00:00.0000, 4.970314752851758E+08, -1.301928602815552E+08, -6.421961885494886E+07,
2460574.500000000, A.D. 2024-Sep-21 00:00:00.0000, 4.986122701769908E+08, -1.206728121333960E+08, -6.398903509225770E+07,
2460581.500000000, A.D. 2024-Sep-28 00:00:00.0000, 5.000178556793937E+08, -1.111103821991582E+08, -6.373596580672933E+07,
2460588.500000000, A.D. 2024-Oct-05 00:00:00.0000, 5.012468997536122E+08, -1.015087428075768E+08, -6.346039304284769E+07,
2460595.500000000, A.D. 2024-Oct-12 00:00:00.0000, 5.022981201625311E+08, -9.187111165105990E+07, -6.316230671919034E+07,
2460602.500000000, A.D. 2024-Oct-19 00:00:00.0000, 5.031702865492905E+08, -8.220075111832149E+07, -6.284170481974491E+07,
2460609.500000000, A.D. 2024-Oct-26 00:00:00.0000, 5.038622221345623E+08, -7.250096752477413E+07, -6.249859354537135E+07,
2460616.500000000, A.D. 2024-Nov-02 00:00:00.0000, 5.043728052892939E+08, -6.277511038742413E+07, -6.213298746105762E+07,
2460623.500000000, A.D. 2024-Nov-09 00:00:00.0000, 5.047009710787318E+08, -5.302657172199316E+07, -6.174490964597808E+07,
2460630.500000000, A.D. 2024-Nov-16 00:00:00.0000, 5.048457128025383E+08, -4.325878536056801E+07, -6.133439184846613E+07,
2460637.500000000, A.D. 2024-Nov-23 00:00:00.0000, 5.048060835763391E+08, -3.347522633843805E+07, -6.090147465393685E+07,
2460644.500000000, A.D. 2024-Nov-30 00:00:00.0000, 5.045811981604698E+08, -2.367941039161259E+07, -6.044620768784732E+07,
2460651.500000000, A.D. 2024-Dec-07 00:00:00.0000, 5.041702354516652E+08, -1.387489314262949E+07, -5.996864985707004E+07,
2460658.500000000, A.D. 2024-Dec-14 00:00:00.0000, 5.035724409456767E+08, -4.065267747509181E+06, -5.946886946572055E+07,
2460665.500000000, A.D. 2024-Dec-21 00:00:00.0000, 5.027871268514090E+08, 5.745837758594397E+06, -5.894694409378456E+07,
2460672.500000000, A.D. 2024-Dec-28 00:00:00.0000, 5.018136718285762E+08, 1.555476045118575E+07, -5.840296066178764E+07,
2460679.500000000, A.D. 2025-Jan-04 00:00:00.0000, 5.006515229439168E+08, 2.535780221914874E+07, -5.783701572510777E+07,
2460686.500000000, A.D. 2025-Jan-11 00:00:00.0000, 4.993001980227642E+08, 3.515123084186252E+07, -5.724921569472758E+07,
2460693.500000000, A.D. 2025-Jan-18 00:00:00.0000, 4.977592874774394E+08, 4.493128152303119E+07, -5.663967697491135E+07,
2460700.500000000, A.D. 2025-Jan-25 00:00:00.0000, 4.960284558538122E+08, 5.469415840750068E+07, -5.600852607834042E+07,
2460707.500000000, A.D. 2025-Feb-01 00:00:00.0000, 4.941074432828574E+08, 6.443603605180413E+07, -5.535589973788971E+07,
$$EOE